KUIPER-00252            
1 67157U 25301AA  26032.94487463  .00024375  00000+0  69232-3 0  9990
2 67157  51.8631 238.3964 0010812 275.9264  84.0489 15.35998196  8236
KUIPER-00261            
1 67158U 25301AB  26032.84145416  .00028592  00000+0  77431-3 0  9994
2 67158  51.8678 238.4773 0007874 255.9685 104.0426 15.37417455  8225
KUIPER-00265            
1 67159U 25301AC  26032.91668981 -.00025362  00000+0 -31239-2 0  9999
2 67159  51.9006 243.7984 0001017   7.5522 184.7907 14.82346857  5524
