[{"OBJECT_NAME":"KUIPER-00252","OBJECT_ID":"2025-301AA","EPOCH":"2026-02-01T22:40:37.168032","MEAN_MOTION":15.35998196,"ECCENTRICITY":0.00108128,"INCLINATION":51.8631,"RA_OF_ASC_NODE":238.3964,"ARG_OF_PERICENTER":275.9264,"MEAN_ANOMALY":84.0489,"EPHEMERIS_TYPE":0,"CLASSIFICATION_TYPE":"U","NORAD_CAT_ID":67157,"ELEMENT_SET_NO":999,"REV_AT_EPOCH":823,"BSTAR":0.00069232,"MEAN_MOTION_DOT":0.00024375,"MEAN_MOTION_DDOT":0},{"OBJECT_NAME":"KUIPER-00261","OBJECT_ID":"2025-301AB","EPOCH":"2026-02-01T20:11:41.639424","MEAN_MOTION":15.37417455,"ECCENTRICITY":0.0007874,"INCLINATION":51.8678,"RA_OF_ASC_NODE":238.4773,"ARG_OF_PERICENTER":255.9685,"MEAN_ANOMALY":104.0426,"EPHEMERIS_TYPE":0,"CLASSIFICATION_TYPE":"U","NORAD_CAT_ID":67158,"ELEMENT_SET_NO":999,"REV_AT_EPOCH":822,"BSTAR":0.00077431117,"MEAN_MOTION_DOT":0.00028592,"MEAN_MOTION_DDOT":0},{"OBJECT_NAME":"KUIPER-00265","OBJECT_ID":"2025-301AC","EPOCH":"2026-02-01T22:00:01.999584","MEAN_MOTION":14.82346857,"ECCENTRICITY":0.00010171,"INCLINATION":51.9006,"RA_OF_ASC_NODE":243.7984,"ARG_OF_PERICENTER":7.5522,"MEAN_ANOMALY":184.7907,"EPHEMERIS_TYPE":0,"CLASSIFICATION_TYPE":"U","NORAD_CAT_ID":67159,"ELEMENT_SET_NO":999,"REV_AT_EPOCH":552,"BSTAR":-0.0031238617,"MEAN_MOTION_DOT":-0.00025362,"MEAN_MOTION_DDOT":0}]
